{"type": "FeatureCollection", "features": [ {"type": "Feature", "properties": {"norad_id": 34077, "name": "IRIDIUM 33 DEB", "group": "iridium-33-debris", "lat": -85.9882628586486, "lon": -68.30355456780204, "alt_km": 685.951064414583, "timestamp": "2025-12-22T04:03:39.553707+00:00", "meta": {"OBJECT_NAME": "IRIDIUM 33 DEB", "OBJECT_ID": "1997-051CL", "EPOCH": "2025-12-21T15:56:42.538272", "MEAN_MOTION": 14.64926195, "ECCENTRICITY": 0.0009169, "INCLINATION": 86.3851, "RA_OF_ASC_NODE": 47.5759, "ARG_OF_PERICENTER": 10.6785, "MEAN_ANOMALY": 117.0898, "EPHEMERIS_TYPE": 0, "CLASSIFICATION_TYPE": "U", "NORAD_CAT_ID": 34077, "ELEMENT_SET_NO": 999, "REV_AT_EPOCH": 88463, "BSTAR": 0.00090411, "MEAN_MOTION_DOT": 4.859e-05, "MEAN_MOTION_DDOT": 0}, "tle": {"line1": "1 34077U 97051CL  25355.66438123  .00004859  00000+0  90411-3 0  9999", "line2": "2 34077  86.3851  47.5759 0009169  10.6785 117.0898 14.64926195884633"}}, "geometry": {"type": "Point", "coordinates": [-68.30355456780204, -85.9882628586486]}}, {"type": "Feature", "properties": {"norad_id": 34079, "name": "IRIDIUM 33 DEB", "group": "iridium-33-debris", "lat": 3.9420144795806715, "lon": -175.87724146056675, "alt_km": 623.0845279299137, "timestamp": "2025-12-22T04:03:39.553718+00:00", "meta": {"OBJECT_NAME": "IRIDIUM 33 DEB", "OBJECT_ID": "1997-051CN", "EPOCH": "2025-12-21T13:15:26.349984", "MEAN_MOTION": 14.83733705, "ECCENTRICITY": 0.000457, "INCLINATION": 86.3769, "RA_OF_ASC_NODE": 4.6535, "ARG_OF_PERICENTER": 336.3629, "MEAN_ANOMALY": 147.0439, "EPHEMERIS_TYPE": 0, "CLASSIFICATION_TYPE": "U", "NORAD_CAT_ID": 34079, "ELEMENT_SET_NO": 999, "REV_AT_EPOCH": 89108, "BSTAR": 0.0012935, "MEAN_MOTION_DOT": 0.00010729, "MEAN_MOTION_DDOT": 0}, "tle": {"line1": "1 34079U 97051CN  25355.55238831  .00010729  00000+0  12935-2 0  9990", "line2": "2 34079  86.3769   4.6535 0004570 336.3629 147.0439 14.83733705891080"}}, "geometry": {"type": "Point", "coordinates": [-175.87724146056675, 3.9420144795806715]}}, {"type": "Feature", "properties": {"norad_id": 34088, "name": "IRIDIUM 33 DEB", "group": "iridium-33-debris", "lat": 3.171992941664722, "lon": -153.81089301316337, "alt_km": 591.0752638037911, "timestamp": "2025-12-22T04:03:39.553728+00:00", "meta": {"OBJECT_NAME": "IRIDIUM 33 DEB", "OBJECT_ID": "1997-051CX", "EPOCH": "2025-12-21T19:59:46.870368", "MEAN_MOTION": 14.91753084, "ECCENTRICITY": 0.0006708, "INCLINATION": 86.3838, "RA_OF_ASC_NODE": 26.5444, "ARG_OF_PERICENTER": 148.1548, "MEAN_ANOMALY": 25.1344, "EPHEMERIS_TYPE": 0, "CLASSIFICATION_TYPE": "U", "NORAD_CAT_ID": 34088, "ELEMENT_SET_NO": 999, "REV_AT_EPOCH": 88877, "BSTAR": 0.0018881, "MEAN_MOTION_DOT": 0.00019078, "MEAN_MOTION_DDOT": 0}, "tle": {"line1": "1 34088U 97051CX  25355.83318137  .00019078  00000+0  18881-2 0  9991", "line2": "2 34088  86.3838  26.5444 0006708 148.1548  25.1344 14.91753084888777"}}, "geometry": {"type": "Point", "coordinates": [-153.81089301316337, 3.171992941664722]}}, {"type": "Feature", "properties": {"norad_id": 34091, "name": "IRIDIUM 33 DEB", "group": "iridium-33-debris", "lat": 42.58869276553135, "lon": 65.88540781272131, "alt_km": 637.4137297001434, "timestamp": "2025-12-22T04:03:39.553738+00:00", "meta": {"OBJECT_NAME": "IRIDIUM 33 DEB", "OBJECT_ID": "1997-051DA", "EPOCH": "2025-12-21T14:54:28.879776", "MEAN_MOTION": 14.82407432, "ECCENTRICITY": 0.0034149, "INCLINATION": 86.3414, "RA_OF_ASC_NODE": 62.7649, "ARG_OF_PERICENTER": 261.2853, "MEAN_ANOMALY": 98.4501, "EPHEMERIS_TYPE": 0, "CLASSIFICATION_TYPE": "U", "NORAD_CAT_ID": 34091, "ELEMENT_SET_NO": 999, "REV_AT_EPOCH": 87998, "BSTAR": 0.0038118, "MEAN_MOTION_DOT": 0.00030966, "MEAN_MOTION_DDOT": 0}, "tle": {"line1": "1 34091U 97051DA  25355.62116759  .00030966  00000+0  38118-2 0  9992", "line2": "2 34091  86.3414  62.7649 0034149 261.2853  98.4501 14.82407432879980"}}, "geometry": {"type": "Point", "coordinates": [65.88540781272131, 42.58869276553135]}}, {"type": "Feature", "properties": {"norad_id": 34097, "name": "IRIDIUM 33 DEB", "group": "iridium-33-debris", "lat": 53.44667354420266, "lon": 172.10176411423168, "alt_km": 823.5163056221527, "timestamp": "2025-12-22T04:03:39.553748+00:00", "meta": {"OBJECT_NAME": "IRIDIUM 33 DEB", "OBJECT_ID": "1997-051DG", "EPOCH": "2025-12-21T17:25:54.708096", "MEAN_MOTION": 14.34842899, "ECCENTRICITY": 0.0081692, "INCLINATION": 86.1999, "RA_OF_ASC_NODE": 357.4405, "ARG_OF_PERICENTER": 332.7773, "MEAN_ANOMALY": 26.9151, "EPHEMERIS_TYPE": 0, "CLASSIFICATION_TYPE": "U", "NORAD_CAT_ID": 34097, "ELEMENT_SET_NO": 999, "REV_AT_EPOCH": 87248, "BSTAR": 0.0011553, "MEAN_MOTION_DOT": 3.423e-05, "MEAN_MOTION_DDOT": 0}, "tle": {"line1": "1 34097U 97051DG  25355.72632764  .00003423  00000+0  11553-2 0  9990", "line2": "2 34097  86.1999 357.4405 0081692 332.7773  26.9151 14.34842899872488"}}, "geometry": {"type": "Point", "coordinates": [172.10176411423168, 53.44667354420266]}}, {"type": "Feature", "properties": {"norad_id": 34145, "name": "IRIDIUM 33 DEB", "group": "iridium-33-debris", "lat": -70.48237725565991, "lon": -42.446296560591676, "alt_km": 785.8784815835315, "timestamp": "2025-12-22T04:03:39.553759+00:00", "meta": {"OBJECT_NAME": "IRIDIUM 33 DEB", "OBJECT_ID": "1997-051DY", "EPOCH": "2025-12-21T08:24:33.903360", "MEAN_MOTION": 14.42344558, "ECCENTRICITY": 0.00556988, "INCLINATION": 86.2119, "RA_OF_ASC_NODE": 328.691, "ARG_OF_PERICENTER": 66.4729, "MEAN_ANOMALY": 294.2309, "EPHEMERIS_TYPE": 0, "CLASSIFICATION_TYPE": "U", "NORAD_CAT_ID": 34145, "ELEMENT_SET_NO": 999, "REV_AT_EPOCH": 87762, "BSTAR": 0.00088327299, "MEAN_MOTION_DOT": 2.992e-05, "MEAN_MOTION_DDOT": 0}, "tle": {"line1": "1 34145U 97051DY  25355.35039240  .00002992  00000+0  88327-3 0  9997", "line2": "2 34145  86.2119 328.6910 0055698  66.4729 294.2309 14.42344558877621"}}, "geometry": {"type": "Point", "coordinates": [-42.446296560591676, -70.48237725565991]}}, {"type": "Feature", "properties": {"norad_id": 34146, "name": "IRIDIUM 33 DEB", "group": "iridium-33-debris", "lat": 23.636907475261886, "lon": 164.00428716849635, "alt_km": 712.3735171762692, "timestamp": "2025-12-22T04:03:39.553770+00:00", "meta": {"OBJECT_NAME": "IRIDIUM 33 DEB", "OBJECT_ID": "1997-051DZ", "EPOCH": "2025-12-21T11:20:47.029056", "MEAN_MOTION": 14.49100968, "ECCENTRICITY": 0.00263815, "INCLINATION": 86.2834, "RA_OF_ASC_NODE": 345.942, "ARG_OF_PERICENTER": 191.3369, "MEAN_ANOMALY": 294.1823, "EPHEMERIS_TYPE": 0, "CLASSIFICATION_TYPE": "U", "NORAD_CAT_ID": 34146, "ELEMENT_SET_NO": 999, "REV_AT_EPOCH": 88233, "BSTAR": 0.00067306657, "MEAN_MOTION_DOT": 2.588e-05, "MEAN_MOTION_DDOT": 0}, "tle": {"line1": "1 34146U 97051DZ  25355.47276654  .00002588  00000+0  67307-3 0  9999", "line2": "2 34146  86.2834 345.9420 0026381 191.3369 294.1823 14.49100968882335"}}, "geometry": {"type": "Point", "coordinates": [164.00428716849635, 23.636907475261886]}}, {"type": "Feature", "properties": {"norad_id": 34159, "name": "IRIDIUM 33 DEB", "group": "iridium-33-debris", "lat": -52.57523171769809, "lon": -130.99438665821353, "alt_km": 753.1987788201468, "timestamp": "2025-12-22T04:03:39.553780+00:00", "meta": {"OBJECT_NAME": "IRIDIUM 33 DEB", "OBJECT_ID": "1997-051EN", "EPOCH": "2025-12-21T10:17:10.762656", "MEAN_MOTION": 14.3851321, "ECCENTRICITY": 0.00260789, "INCLINATION": 86.3499, "RA_OF_ASC_NODE": 44.5364, "ARG_OF_PERICENTER": 257.1437, "MEAN_ANOMALY": 102.6848, "EPHEMERIS_TYPE": 0, "CLASSIFICATION_TYPE": "U", "NORAD_CAT_ID": 34159, "ELEMENT_SET_NO": 999, "REV_AT_EPOCH": 88084, "BSTAR": 0.00030289356, "MEAN_MOTION_DOT": 9.48e-06, "MEAN_MOTION_DDOT": 0}, "tle": {"line1": "1 34159U 97051EN  25355.42859679  .00000948  00000+0  30289-3 0  9999", "line2": "2 34159  86.3499  44.5364 0026078 257.1437 102.6848 14.38513210880846"}}, "geometry": {"type": "Point", "coordinates": [-130.99438665821353, -52.57523171769809]}}, {"type": "Feature", "properties": {"norad_id": 34350, "name": "IRIDIUM 33 DEB", "group": "iridium-33-debris", "lat": 44.49963658416863, "lon": 175.09632854148117, "alt_km": 722.4392728726161, "timestamp": "2025-12-22T04:03:39.553791+00:00", "meta": {"OBJECT_NAME": "IRIDIUM 33 DEB", "OBJECT_ID": "1997-051ES", "EPOCH": "2025-12-21T13:03:35.322048", "MEAN_MOTION": 14.45405822, "ECCENTRICITY": 0.0023399, "INCLINATION": 86.3272, "RA_OF_ASC_NODE": 358.9864, "ARG_OF_PERICENTER": 108.1972, "MEAN_ANOMALY": 16.6332, "EPHEMERIS_TYPE": 0, "CLASSIFICATION_TYPE": "U", "NORAD_CAT_ID": 34350, "ELEMENT_SET_NO": 999, "REV_AT_EPOCH": 88420, "BSTAR": 0.00025936, "MEAN_MOTION_DOT": 9.35e-06, "MEAN_MOTION_DDOT": 0}, "tle": {"line1": "1 34350U 97051ES  25355.54415882  .00000935  00000+0  25936-3 0  9998", "line2": "2 34350  86.3272 358.9864 0023399 108.1972  16.6332 14.45405822884200"}}, "geometry": {"type": "Point", "coordinates": [175.09632854148117, 44.49963658416863]}}, {"type": "Feature", "properties": {"norad_id": 34366, "name": "IRIDIUM 33 DEB", "group": "iridium-33-debris", "lat": 37.49000334530809, "lon": 48.00409983056124, "alt_km": 704.6226496293248, "timestamp": "2025-12-22T04:03:39.553801+00:00", "meta": {"OBJECT_NAME": "IRIDIUM 33 DEB", "OBJECT_ID": "1997-051FJ", "EPOCH": "2025-12-21T03:14:39.196032", "MEAN_MOTION": 14.54116771, "ECCENTRICITY": 0.00229982, "INCLINATION": 86.369, "RA_OF_ASC_NODE": 45.662, "ARG_OF_PERICENTER": 113.5249, "MEAN_ANOMALY": 274.8967, "EPHEMERIS_TYPE": 0, "CLASSIFICATION_TYPE": "U", "NORAD_CAT_ID": 34366, "ELEMENT_SET_NO": 999, "REV_AT_EPOCH": 88304, "BSTAR": 0.00059167018, "MEAN_MOTION_DOT": 2.529e-05, "MEAN_MOTION_DDOT": 0}, "tle": {"line1": "1 34366U 97051FJ  25355.13517588  .00002529  00000+0  59167-3 0  9990", "line2": "2 34366  86.3690  45.6620 0022998 113.5249 274.8967 14.54116771883047"}}, "geometry": {"type": "Point", "coordinates": [48.00409983056124, 37.49000334530809]}}]}